NORAD_CAT_ID,OBJECT_NAME,OBJECT_TYPE,EPOCH,MEAN_MOTION,ECCENTRICITY,INCLINATION,RA_OF_ASC_NODE,ARG_OF_PERICENTER,MEAN_ANOMALY,BSTAR,MEAN_MOTION_DOT,MEAN_MOTION_DDOT,TLE_LINE0,TLE_LINE1,TLE_LINE2,SEMIMAJOR_AXIS,PERIOD,APOGEE,PERIGEE,DECAYED
55302.0,STARLINK-5321,PAYLOAD,2023-12-20 20:08:41,14.98328311,0.0002407,69.9995,266.2837,250.3526,109.7373,0.00014924,1.688e-05,0.0,0 STARLINK-5321,1 55302U 23010AK  23354.83936769  .00001688  00000-0  14924-3 0  9995,2 55302  69.9995 266.2837 0002407 250.3526 109.7373 14.98328311 51651,6950.198,96.107,573.736,570.39,0.0
55302.0,STARLINK-5321,PAYLOAD,2023-12-20 21:44:49,14.98328818,0.0002402,69.9996,266.1153,250.0384,110.0516,0.00015314,1.735e-05,0.0,0 STARLINK-5321,1 55302U 23010AK  23354.90612732  .00001735  00000-0  15314-3 0  9991,2 55302  69.9996 266.1153 0002402 250.0384 110.0516 14.98328818 51977,6950.197,96.107,573.731,570.392,0.0
55302.0,STARLINK-5321,PAYLOAD,2023-12-21 04:09:21,14.98333722,0.0002365,69.9997,265.4426,245.5718,114.5194,0.00019689,2.257e-05,0.0,0 STARLINK-5321,1 55302U 23010AK  23355.17316272  .00002257  00000-0  19689-3 0  9990,2 55302  69.9997 265.4426 0002365 245.5718 114.5194 14.98333722 52018,6950.181,96.107,573.69,570.403,0.0
55302.0,STARLINK-5321,PAYLOAD,2023-12-21 21:46:50,14.98330064,0.0002346,70.0013,263.5952,224.6126,135.4845,-2.4777e-05,-3.88e-06,0.0,0 STARLINK-5321,1 55302U 23010AK  23355.90753199 -.00000388  00000-0 -24777-4 0  9994,2 55302  70.0013 263.5952 0002346 224.6126 135.4845 14.98330064 52126,6950.193,96.107,573.688,570.427,0.0
55302.0,STARLINK-5321,PAYLOAD,2023-12-22 04:11:23,14.98329697,0.0002369,69.9993,262.918,249.7412,110.3492,-2.4354e-05,-3.83e-06,0.0,0 STARLINK-5321,1 55302U 23010AK  23356.17457237 -.00000383  00000-0 -24354-4 0  9994,2 55302  69.9993 262.9180 0002369 249.7412 110.3492 14.98329697 51856,6950.194,96.107,573.705,570.412,0.0
55302.0,STARLINK-5321,PAYLOAD,2023-12-22 21:48:51,14.98368792,0.0002093,69.9994,261.0656,256.3886,103.704,-0.00059317,-7.17e-05,0.0,0 STARLINK-5321,1 55302U 23010AK  23356.90892418 -.00007170  00000-0 -59317-3 0  9996,2 55302  69.9994 261.0656 0002093 256.3886 103.7040 14.98368792 52279,6950.073,96.105,573.393,570.483,0.0
55302.0,STARLINK-5321,PAYLOAD,2023-12-23 02:37:14,14.98363794,0.0002027,69.9995,260.5597,257.5642,102.529,-0.00047007,-5.702e-05,0.0,0 STARLINK-5321,1 55302U 23010AK  23357.10920019 -.00005702  00000-0 -47007-3 0  9990,2 55302  69.9995 260.5597 0002027 257.5642 102.5290 14.98363794 51997,6950.088,96.105,573.362,570.545,0.0
55302.0,STARLINK-5321,PAYLOAD,2023-12-23 04:13:22,14.98365001,0.0002039,69.9996,260.3919,255.9451,104.1481,-0.00046698,-5.665e-05,0.0,0 STARLINK-5321,1 55302U 23010AK  23357.17595805 -.00005665  00000-0 -46698-3 0  9991,2 55302  69.9996 260.3919 0002039 255.9451 104.1481 14.98365001 52317,6950.085,96.105,573.367,570.533,0.0
55302.0,STARLINK-5321,PAYLOAD,2023-12-23 18:38:36,14.98320606,0.0001996,70.0015,258.8767,249.2776,110.8169,0.00010425,1.151e-05,0.0,0 STARLINK-5321,1 55302U 23010AK  23357.77681043  .00001151  00000-0  10425-3 0  9990,2 55302  70.0015 258.8767 0001996 249.2776 110.8169 14.98320606 52096,6950.222,96.108,573.474,570.7,0.0
55302.0,STARLINK-5321,PAYLOAD,2023-12-23 20:14:44,14.98318857,0.0002249,70.0007,258.7086,258.6916,101.3991,9.0847e-05,9.91e-06,0.0,0 STARLINK-5321,1 55302U 23010AK  23357.84357216  .00000991  00000-0  90847-4 0  9998,2 55302  70.0007 258.7086 0002249 258.6916 101.3991 14.98318857 52411,6950.227,96.108,573.655,570.529,0.0
55302.0,STARLINK-5321,PAYLOAD,2023-12-24 04:15:24,14.98322551,0.0002084,70.0005,257.8661,256.154,103.9387,0.00012074,1.348e-05,0.0,0 STARLINK-5321,1 55302U 23010AK  23358.17737044  .00001348  00000-0  12074-3 0  9998,2 55302  70.0005 257.8661 0002084 256.1540 103.9387 14.98322551 52469,6950.216,96.107,573.529,570.633,0.0
55302.0,STARLINK-5321,PAYLOAD,2023-12-24 20:16:45,14.98328159,0.0002001,70.0003,256.1832,237.0763,123.0204,-1.2828e-05,-2.46e-06,0.0,0 STARLINK-5321,1 55302U 23010AK  23358.84496969 -.00000246  00000-0 -12828-4 0  9996,2 55302  70.0003 256.1832 0002001 237.0763 123.0204 14.98328159 52251,6950.199,96.107,573.454,570.673,0.0
55302.0,STARLINK-5321,PAYLOAD,2023-12-24 21:52:53,14.98328569,0.0002071,70.0,256.0147,248.226,111.8679,-1.0502e-05,-2.18e-06,0.0,0 STARLINK-5321,1 55302U 23010AK  23358.91172950 -.00000218  00000-0 -10502-4 0  9991,2 55302  70.0000 256.0147 0002071 248.2260 111.8679 14.98328569 52570,6950.197,96.107,573.502,570.623,0.0
55302.0,STARLINK-5321,PAYLOAD,2023-12-25 04:17:25,14.983242,0.0002152,69.9999,255.3412,246.0147,114.0786,7.2665e-05,7.74e-06,0.0,0 STARLINK-5321,1 55302U 23010AK  23359.17877038  .00000774  00000-0  72665-4 0  9992,2 55302  69.9999 255.3412 0002152 246.0147 114.0786 14.98324200 52618,6950.211,96.107,573.572,570.58,0.0
55302.0,STARLINK-5321,PAYLOAD,2023-12-25 20:18:46,14.98327168,0.000207,69.9996,253.6574,246.7894,113.3048,1.0322e-05,3e-07,0.0,0 STARLINK-5321,1 55302U 23010AK  23359.84636980  .00000030  00000-0  10322-4 0  9992,2 55302  69.9996 253.6574 0002070 246.7894 113.3048 14.98327168 52406,6950.202,96.107,573.505,570.628,0.0
55302.0,STARLINK-5321,PAYLOAD,2023-12-25 21:54:54,14.98326643,0.0002084,69.9997,253.4891,246.8233,113.2707,2.8882e-06,-5.8e-07,0.0,0 STARLINK-5321,1 55302U 23010AK  23359.91313044 -.00000058  00000-0  28882-5 0  9995,2 55302  69.9997 253.4891 0002084 246.8233 113.2707 14.98326643 52723,6950.203,96.107,573.517,570.62,0.0
55302.0,STARLINK-5321,PAYLOAD,2023-12-26 02:43:18,14.98325892,0.000226,69.9998,252.9843,252.695,107.3962,-8.4655e-06,-1.94e-06,0.0,0 STARLINK-5321,1 55302U 23010AK  23360.11341163 -.00000194  00000-0 -84655-5 0  9994,2 55302  69.9998 252.9843 0002260 252.6950 107.3962 14.98325892 52757,6950.206,96.107,573.641,570.5,0.0
55302.0,STARLINK-5321,PAYLOAD,2023-12-26 20:20:47,14.98330899,0.0002252,69.999,251.1316,258.9538,101.1368,3.8346e-06,-4.7e-07,0.0,0 STARLINK-5321,1 55302U 23010AK  23360.84776847 -.00000047  00000-0  38346-5 0  9997,2 55302  69.9990 251.1316 0002252 258.9538 101.1368 14.98330899 52550,6950.19,96.107,573.62,570.49,0.0
55302.0,STARLINK-5321,PAYLOAD,2023-12-27 02:45:19,14.98332627,0.0002254,69.999,250.4586,262.2686,97.8217,2.375e-05,1.9e-06,0.0,0 STARLINK-5321,1 55302U 23010AK  23361.11480668  .00000190  00000-0  23750-4 0  9991,2 55302  69.9990 250.4586 0002254 262.2686  97.8217 14.98332627 52909,6950.185,96.107,573.616,570.483,0.0
55302.0,STARLINK-5321,PAYLOAD,2023-12-27 21:58:58,14.98308198,0.0002561,69.9985,248.4388,272.8526,87.2339,-0.00022331,-2.755e-05,0.0,0 STARLINK-5321,1 55302U 23010AK  23361.91594993 -.00002755  00000-0 -22331-3 0  9990,2 55302  69.9985 248.4388 0002561 272.8526  87.2339 14.98308198 53029,6950.26,96.108,573.905,570.345,0.0
55302.0,STARLINK-5321,PAYLOAD,2023-12-28 02:47:22,14.98310018,0.0002342,69.9988,247.9349,265.3422,94.747,-0.00018869,-2.342e-05,0.0,0 STARLINK-5321,1 55302U 23010AK  23362.11622987 -.00002342  00000-0 -18869-3 0  9991,2 55302  69.9988 247.9349 0002342 265.3422  94.7470 14.98310018 52743,6950.255,96.108,573.747,570.492,0.0
55302.0,STARLINK-5321,PAYLOAD,2023-12-28 20:24:50,14.98321689,0.0002714,69.9977,246.0813,278.9671,81.118,-8.6055e-05,-1.119e-05,0.0,0 STARLINK-5321,1 55302U 23010AK  23362.85058587 -.00001119  00000-0 -86055-4 0  9995,2 55302  69.9977 246.0813 0002714 278.9671  81.1180 14.98321689 52852,6950.219,96.108,573.97,570.197,0.0
55302.0,STARLINK-5321,PAYLOAD,2023-12-29 02:49:22,14.98340787,0.0002301,69.9989,245.4089,278.1406,81.9492,-0.00023905,-2.945e-05,0.0,0 STARLINK-5321,1 55302U 23010AK  23363.11761881 -.00002945  00000-0 -23905-3 0  9995,2 55302  69.9989 245.4089 0002301 278.1406  81.9492 14.98340787 52891,6950.16,96.106,573.624,570.425,0.0
55302.0,STARLINK-5321,PAYLOAD,2023-12-29 18:50:42,14.98321288,0.0002502,69.998,243.7256,273.531,86.5563,0.00024073,2.78e-05,0.0,0 STARLINK-5321,1 55302U 23010AK  23363.78521820  .00002780  00000-0  24073-3 0  9997,2 55302  69.9980 243.7256 0002502 273.5310  86.5563 14.98321288 52991,6950.22,96.108,573.824,570.346,0.0
55302.0,STARLINK-5321,PAYLOAD,2023-12-29 22:02:58,14.98324044,0.000245,69.9982,243.389,275.0169,85.071,0.00026633,3.086e-05,0.0,0 STARLINK-5321,1 55302U 23010AK  23363.91873652  .00003086  00000-0  26633-3 0  9999,2 55302  69.9982 243.3890 0002450 275.0169  85.0710 14.98324044 53323,6950.211,96.107,573.779,570.374,0.0
55302.0,STARLINK-5321,PAYLOAD,2023-12-30 02:51:22,14.98329956,0.0002348,69.9982,242.884,271.6562,88.4328,0.00031649,3.685e-05,0.0,0 STARLINK-5321,1 55302U 23010AK  23364.11901132  .00003685  00000-0  31649-3 0  9995,2 55302  69.9982 242.8840 0002348 271.6562  88.4328 14.98329956 53045,6950.193,96.107,573.69,570.426,0.0
55302.0,STARLINK-5321,PAYLOAD,2023-12-30 22:04:59,14.98338539,0.0002243,69.9982,240.864,270.5072,89.583,0.00010536,1.165e-05,0.0,0 STARLINK-5321,1 55302U 23010AK  23364.92012923  .00001165  00000-0  10536-3 0  9998,2 55302  69.9982 240.8640 0002243 270.5072  89.5830 14.98338539 53473,6950.166,96.106,573.59,570.473,0.0
55302.0,STARLINK-5321,PAYLOAD,2023-12-31 18:54:44,14.98336527,0.0001941,69.9989,238.6777,250.5718,109.5231,-9.8097e-05,-1.263e-05,0.0,0 STARLINK-5321,1 55302U 23010AK  23365.78800990 -.00001263  00000-0 -98097-4 0  9992,2 55302  69.9989 238.6777 0001941 250.5718 109.5231 14.98336527 53298,6950.173,96.107,573.387,570.689,0.0
55302.0,STARLINK-5321,PAYLOAD,2023-12-31 22:07:00,14.9833401,0.0002107,69.9989,238.3405,261.2075,98.8846,-9.0924e-05,-1.178e-05,0.0,0 STARLINK-5321,1 55302U 23010AK  23365.92153067 -.00001178  00000-0 -90924-4 0  9990,2 55302  69.9989 238.3405 0002107 261.2075  98.8846 14.98334010 53627,6950.18,96.107,573.51,570.581,0.0
55302.0,STARLINK-5321,PAYLOAD,2024-01-01 01:19:16,14.9833793,0.000231,69.9982,238.0025,267.5168,92.5726,-9.2814e-05,-1.2e-05,0.0,0 STARLINK-5321,1 55302U 23010AK  24001.05504769 -.00001200  00000-0 -92814-4 0  9997,2 55302  69.9982 238.0025 0002310 267.5168  92.5726 14.98337930 53647,6950.168,96.106,573.639,570.428,0.0
